[{"OBJECT_NAME":"STARLINK-5146","OBJECT_ID":"2022-136Y","EPOCH":"2026-03-09T22:03:12.423456","MEAN_MOTION":15.08834525,"ECCENTRICITY":0.00013963,"INCLINATION":53.2197,"RA_OF_ASC_NODE":337.7528,"ARG_OF_PERICENTER":92.1281,"MEAN_ANOMALY":267.9871,"EPHEMERIS_TYPE":0,"CLASSIFICATION_TYPE":"U","NORAD_CAT_ID":54073,"ELEMENT_SET_NO":999,"REV_AT_EPOCH":18695,"BSTAR":-4.1991979e-5,"MEAN_MOTION_DOT":-9.56e-6,"MEAN_MOTION_DDOT":0},{"OBJECT_NAME":"FENGYUN 1C DEB","OBJECT_ID":"1999-025CDD","EPOCH":"2026-03-09T11:33:45.810144","MEAN_MOTION":14.75920434,"ECCENTRICITY":0.01680026,"INCLINATION":98.2535,"RA_OF_ASC_NODE":159.595,"ARG_OF_PERICENTER":312.1312,"MEAN_ANOMALY":46.5721,"EPHEMERIS_TYPE":0,"CLASSIFICATION_TYPE":"U","NORAD_CAT_ID":31695,"ELEMENT_SET_NO":999,"REV_AT_EPOCH":67250,"BSTAR":0.0010431251,"MEAN_MOTION_DOT":8.978e-5,"MEAN_MOTION_DDOT":0}]
